SL-16 R/B               
1 22566U 93016B   26023.19304527  .00000366  00000+0  21243-3 0  9993
2 22566  71.0087 310.7401 0009177  21.1410 339.0090 14.15296290695738
COSMOS 2242             
1 22626U 93024A   26023.76850093  .00002975  00000+0  25999-3 0  9996
2 22626  82.5209 309.6730 0018118  95.2359 265.0931 14.96331545773673
SL-16 R/B               
1 22803U 93059B   26023.94003946 -.00000082  00000+0 -16916-4 0  9997
2 22803  70.9907 105.4989 0019587 277.4329  82.4569 14.17223902673190
ARIANE 40 R/B           
1 22830U 93061H   26023.44804500  .00000513  00000+0  20371-3 0  9996
2 22830  98.5010  93.2070 0011625  61.9139 298.3220 14.32833546687629
COSMOS 2278             
1 23087U 94023A   26023.97077531  .00000022  00000+0  36065-4 0  9997
2 23087  71.0535 268.6582 0006344  98.8984 261.2857 14.14367184638482
SL-16 R/B               
1 23088U 94023B   26023.68407401 -.00000050  00000+0 -99079-6 0  9998
2 23088  71.0000 165.4020 0004019 327.5635  32.5240 14.15007041639720
SL-16 R/B               
1 23343U 94074B   26023.83562970  .00000894  00000+0  12663-3 0  9993
2 23343  97.7164  56.4593 0006958  19.8398 153.0184 14.79348049680611
SL-16 R/B               
1 23405U 94077B   26023.47126933 -.00000003  00000+0  23141-4 0  9997
2 23405  70.9830  87.6227 0004843 252.3755 107.6839 14.15558859609834
ARIANE 40+ R/B          
1 23561U 95021B   26023.94371801  .00000746  00000+0  25194-3 0  9990
2 23561  98.4586  96.0120 0005620 276.3317 256.6978 14.39735902612802
SL-16 R/B               
1 23705U 95058B   26023.97069188 -.00000171  00000+0 -63342-4 0  9997
2 23705  71.0208 274.1429 0013181 198.1294 161.9361 14.15488975561522
SL-16 R/B               
1 24298U 96051B   26023.98184682  .00000106  00000+0  84291-4 0  9999
2 24298  70.7580 269.8718 0018533 209.0029 151.0062 14.12403222515330
ORBVIEW 2 (SEASTAR)     
1 24883U 97037A   26023.52917626  .00000654  00000+0  24367-3 0  9991
2 24883  98.8491 186.6643 0002260 168.6387 191.4849 14.35455271501996
