CCSDS_OMM_VERS = 2.0
CREATION_DATE  = 
ORIGINATOR     = 

OBJECT_NAME    = SL-16 R/B
OBJECT_ID      = 1993-016B
CENTER_NAME    = EARTH
REF_FRAME      = TEME
TIME_SYSTEM    = UTC
MEAN_ELEMENT_THEORY = SGP/SGP4

EPOCH          = 2026-01-23T04:37:59.111328
MEAN_MOTION    = 14.15296290
ECCENTRICITY   = .00091774
INCLINATION    = 71.0087
RA_OF_ASC_NODE = 310.7401
ARG_OF_PERICENTER = 21.1410
MEAN_ANOMALY   = 339.0090

EPHEMERIS_TYPE = 0
CLASSIFICATION_TYPE = U
NORAD_CAT_ID   = 22566
ELEMENT_SET_NO = 999
REV_AT_EPOCH   = 69573
BSTAR          = .21243121E-3
MEAN_MOTION_DOT = .366E-5
MEAN_MOTION_DDOT = 0

CCSDS_OMM_VERS = 2.0
CREATION_DATE  = 
ORIGINATOR     = 

OBJECT_NAME    = COSMOS 2242
OBJECT_ID      = 1993-024A
CENTER_NAME    = EARTH
REF_FRAME      = TEME
TIME_SYSTEM    = UTC
MEAN_ELEMENT_THEORY = SGP/SGP4

EPOCH          = 2026-01-23T18:26:38.480352
MEAN_MOTION    = 14.96331545
ECCENTRICITY   = .00181184
INCLINATION    = 82.5209
RA_OF_ASC_NODE = 309.6730
ARG_OF_PERICENTER = 95.2359
MEAN_ANOMALY   = 265.0931

EPHEMERIS_TYPE = 0
CLASSIFICATION_TYPE = U
NORAD_CAT_ID   = 22626
ELEMENT_SET_NO = 999
REV_AT_EPOCH   = 77367
BSTAR          = .25998632E-3
MEAN_MOTION_DOT = .2975E-4
MEAN_MOTION_DDOT = 0

CCSDS_OMM_VERS = 2.0
CREATION_DATE  = 
ORIGINATOR     = 

OBJECT_NAME    = SL-16 R/B
OBJECT_ID      = 1993-059B
CENTER_NAME    = EARTH
REF_FRAME      = TEME
TIME_SYSTEM    = UTC
MEAN_ELEMENT_THEORY = SGP/SGP4

EPOCH          = 2026-01-23T22:33:39.409344
MEAN_MOTION    = 14.17223902
ECCENTRICITY   = .00195877
INCLINATION    = 70.9907
RA_OF_ASC_NODE = 105.4989
ARG_OF_PERICENTER = 277.4329
MEAN_ANOMALY   = 82.4569

EPHEMERIS_TYPE = 0
CLASSIFICATION_TYPE = U
NORAD_CAT_ID   = 22803
ELEMENT_SET_NO = 999
REV_AT_EPOCH   = 67319
BSTAR          = -.16915929E-4
MEAN_MOTION_DOT = -.82E-6
MEAN_MOTION_DDOT = 0

CCSDS_OMM_VERS = 2.0
CREATION_DATE  = 
ORIGINATOR     = 

OBJECT_NAME    = ARIANE 40 R/B
OBJECT_ID      = 1993-061H
CENTER_NAME    = EARTH
REF_FRAME      = TEME
TIME_SYSTEM    = UTC
MEAN_ELEMENT_THEORY = SGP/SGP4

EPOCH          = 2026-01-23T10:45:11.088000
MEAN_MOTION    = 14.32833546
ECCENTRICITY   = .00116256
INCLINATION    = 98.5010
RA_OF_ASC_NODE = 93.2070
ARG_OF_PERICENTER = 61.9139
MEAN_ANOMALY   = 298.3220

EPHEMERIS_TYPE = 0
CLASSIFICATION_TYPE = U
NORAD_CAT_ID   = 22830
ELEMENT_SET_NO = 999
REV_AT_EPOCH   = 68762
BSTAR          = .20370947E-3
MEAN_MOTION_DOT = .513E-5
MEAN_MOTION_DDOT = 0

CCSDS_OMM_VERS = 2.0
CREATION_DATE  = 
ORIGINATOR     = 

OBJECT_NAME    = COSMOS 2278
OBJECT_ID      = 1994-023A
CENTER_NAME    = EARTH
REF_FRAME      = TEME
TIME_SYSTEM    = UTC
MEAN_ELEMENT_THEORY = SGP/SGP4

EPOCH          = 2026-01-23T23:17:54.986784
MEAN_MOTION    = 14.14367184
ECCENTRICITY   = .00063443
INCLINATION    = 71.0535
RA_OF_ASC_NODE = 268.6582
ARG_OF_PERICENTER = 98.8984
MEAN_ANOMALY   = 261.2857

EPHEMERIS_TYPE = 0
CLASSIFICATION_TYPE = U
NORAD_CAT_ID   = 23087
ELEMENT_SET_NO = 999
REV_AT_EPOCH   = 63848
BSTAR          = .36064808E-4
MEAN_MOTION_DOT = .22E-6
MEAN_MOTION_DDOT = 0

CCSDS_OMM_VERS = 2.0
CREATION_DATE  = 
ORIGINATOR     = 

OBJECT_NAME    = SL-16 R/B
OBJECT_ID      = 1994-023B
CENTER_NAME    = EARTH
REF_FRAME      = TEME
TIME_SYSTEM    = UTC
MEAN_ELEMENT_THEORY = SGP/SGP4

EPOCH          = 2026-01-23T16:25:03.994464
MEAN_MOTION    = 14.15007041
ECCENTRICITY   = .0004019
INCLINATION    = 71.0000
RA_OF_ASC_NODE = 165.4020
ARG_OF_PERICENTER = 327.5635
MEAN_ANOMALY   = 32.5240

EPHEMERIS_TYPE = 0
CLASSIFICATION_TYPE = U
NORAD_CAT_ID   = 23088
ELEMENT_SET_NO = 999
REV_AT_EPOCH   = 63972
BSTAR          = -.990789E-6
MEAN_MOTION_DOT = -.5E-6
MEAN_MOTION_DDOT = 0

CCSDS_OMM_VERS = 2.0
CREATION_DATE  = 
ORIGINATOR     = 

OBJECT_NAME    = SL-16 R/B
OBJECT_ID      = 1994-074B
CENTER_NAME    = EARTH
REF_FRAME      = TEME
TIME_SYSTEM    = UTC
MEAN_ELEMENT_THEORY = SGP/SGP4

EPOCH          = 2026-01-23T20:03:18.406080
MEAN_MOTION    = 14.79348049
ECCENTRICITY   = .00069581
INCLINATION    = 97.7164
RA_OF_ASC_NODE = 56.4593
ARG_OF_PERICENTER = 19.8398
MEAN_ANOMALY   = 153.0184

EPHEMERIS_TYPE = 0
CLASSIFICATION_TYPE = U
NORAD_CAT_ID   = 23343
ELEMENT_SET_NO = 999
REV_AT_EPOCH   = 68061
BSTAR          = .12662827E-3
MEAN_MOTION_DOT = .894E-5
MEAN_MOTION_DDOT = 0

CCSDS_OMM_VERS = 2.0
CREATION_DATE  = 
ORIGINATOR     = 

OBJECT_NAME    = SL-16 R/B
OBJECT_ID      = 1994-077B
CENTER_NAME    = EARTH
REF_FRAME      = TEME
TIME_SYSTEM    = UTC
MEAN_ELEMENT_THEORY = SGP/SGP4

EPOCH          = 2026-01-23T11:18:37.670112
MEAN_MOTION    = 14.15558859
ECCENTRICITY   = .00048432
INCLINATION    = 70.9830
RA_OF_ASC_NODE = 87.6227
ARG_OF_PERICENTER = 252.3755
MEAN_ANOMALY   = 107.6839

EPHEMERIS_TYPE = 0
CLASSIFICATION_TYPE = U
NORAD_CAT_ID   = 23405
ELEMENT_SET_NO = 999
REV_AT_EPOCH   = 60983
BSTAR          = .23141075E-4
MEAN_MOTION_DOT = -.3E-7
MEAN_MOTION_DDOT = 0

CCSDS_OMM_VERS = 2.0
CREATION_DATE  = 
ORIGINATOR     = 

OBJECT_NAME    = ARIANE 40+ R/B
OBJECT_ID      = 1995-021B
CENTER_NAME    = EARTH
REF_FRAME      = TEME
TIME_SYSTEM    = UTC
MEAN_ELEMENT_THEORY = SGP/SGP4

EPOCH          = 2026-01-23T22:38:57.236064
MEAN_MOTION    = 14.39735902
ECCENTRICITY   = .00056201
INCLINATION    = 98.4586
RA_OF_ASC_NODE = 96.0120
ARG_OF_PERICENTER = 276.3317
MEAN_ANOMALY   = 256.6978

EPHEMERIS_TYPE = 0
CLASSIFICATION_TYPE = U
NORAD_CAT_ID   = 23561
ELEMENT_SET_NO = 999
REV_AT_EPOCH   = 61280
BSTAR          = .25194162E-3
MEAN_MOTION_DOT = .746E-5
MEAN_MOTION_DDOT = 0

CCSDS_OMM_VERS = 2.0
CREATION_DATE  = 
ORIGINATOR     = 

OBJECT_NAME    = SL-16 R/B
OBJECT_ID      = 1995-058B
CENTER_NAME    = EARTH
REF_FRAME      = TEME
TIME_SYSTEM    = UTC
MEAN_ELEMENT_THEORY = SGP/SGP4

EPOCH          = 2026-01-23T23:17:47.778432
MEAN_MOTION    = 14.15488975
ECCENTRICITY   = .00131817
INCLINATION    = 71.0208
RA_OF_ASC_NODE = 274.1429
ARG_OF_PERICENTER = 198.1294
MEAN_ANOMALY   = 161.9361

EPHEMERIS_TYPE = 0
CLASSIFICATION_TYPE = U
NORAD_CAT_ID   = 23705
ELEMENT_SET_NO = 999
REV_AT_EPOCH   = 56152
BSTAR          = -.63341739E-4
MEAN_MOTION_DOT = -.171E-5
MEAN_MOTION_DDOT = 0

CCSDS_OMM_VERS = 2.0
CREATION_DATE  = 
ORIGINATOR     = 

OBJECT_NAME    = SL-16 R/B
OBJECT_ID      = 1996-051B
CENTER_NAME    = EARTH
REF_FRAME      = TEME
TIME_SYSTEM    = UTC
MEAN_ELEMENT_THEORY = SGP/SGP4

EPOCH          = 2026-01-23T23:33:51.565248
MEAN_MOTION    = 14.12403222
ECCENTRICITY   = .00185338
INCLINATION    = 70.7580
RA_OF_ASC_NODE = 269.8718
ARG_OF_PERICENTER = 209.0029
MEAN_ANOMALY   = 151.0062

EPHEMERIS_TYPE = 0
CLASSIFICATION_TYPE = U
NORAD_CAT_ID   = 24298
ELEMENT_SET_NO = 999
REV_AT_EPOCH   = 51533
BSTAR          = .84291263E-4
MEAN_MOTION_DOT = .106E-5
MEAN_MOTION_DDOT = 0

CCSDS_OMM_VERS = 2.0
CREATION_DATE  = 
ORIGINATOR     = 

OBJECT_NAME    = ORBVIEW 2 (SEASTAR)
OBJECT_ID      = 1997-037A
CENTER_NAME    = EARTH
REF_FRAME      = TEME
TIME_SYSTEM    = UTC
MEAN_ELEMENT_THEORY = SGP/SGP4

EPOCH          = 2026-01-23T12:42:00.828864
MEAN_MOTION    = 14.35455271
ECCENTRICITY   = .00022603
INCLINATION    = 98.8491
RA_OF_ASC_NODE = 186.6643
ARG_OF_PERICENTER = 168.6387
MEAN_ANOMALY   = 191.4849

EPHEMERIS_TYPE = 0
CLASSIFICATION_TYPE = U
NORAD_CAT_ID   = 24883
ELEMENT_SET_NO = 999
REV_AT_EPOCH   = 50199
BSTAR          = .24366521E-3
MEAN_MOTION_DOT = .654E-5
MEAN_MOTION_DDOT = 0

